{
  "norad_id": 68599,
  "name": "KUIPER-00304",
  "history": [
    {
      "epoch": "2026-04-09T10:35:44.145024Z",
      "apogee_km": 463.6187417228266,
      "perigee_km": 450.41459186931024,
      "latitude_deg": -3.23635128807346e-05,
      "longitude_deg": 152.80510818651118,
      "height_km": 462.20207048708727,
      "semi_major_axis_km": 6835.153666796068,
      "eccentricity": 0.0009659,
      "inclination_deg": 51.866,
      "raan_deg": 149.4287,
      "arg_perigee_deg": 132.2113,
      "mean_anomaly_deg": 227.9694,
      "mean_motion_rev_day": 15.36315237
    }
  ]
}